SENTINEL-6              
1 46984U 20086A   24138.78202324 -.00000049  00000+0  52091-4 0  9997
2 46984  66.0415 274.4195 0007795 270.5279  89.4843 12.80931047162939
